{
    "links": {
        "self": "http://www.neowsapp.com/rest/v1/neo/3879718?api_key=iIulBulltgU6a56xZRHN4H3l9WmuAYTsLGpBGhQ2"
    },
    "id": "3879718",
    "neo_reference_id": "3879718",
    "name": "(2019 UM6)",
    "designation": "2019 UM6",
    "nasa_jpl_url": "http://ssd.jpl.nasa.gov/sbdb.cgi?sstr=3879718",
    "absolute_magnitude_h": 22.6,
    "estimated_diameter": {
        "kilometers": {
            "estimated_diameter_min": 0.0802703167,
            "estimated_diameter_max": 0.1794898848
        },
        "meters": {
            "estimated_diameter_min": 80.2703167283,
            "estimated_diameter_max": 179.4898847799
        },
        "miles": {
            "estimated_diameter_min": 0.049877647,
            "estimated_diameter_max": 0.1115298092
        },
        "feet": {
            "estimated_diameter_min": 263.3540659348,
            "estimated_diameter_max": 588.8775935812
        }
    },
    "is_potentially_hazardous_asteroid": false,
    "close_approach_data": [
        {
            "close_approach_date": "2012-11-02",
            "close_approach_date_full": "2012-Nov-02 04:01",
            "epoch_date_close_approach": 1351828860000,
            "relative_velocity": {
                "kilometers_per_second": "9.0416781803",
                "kilometers_per_hour": "32550.0414489243",
                "miles_per_hour": "20225.3299214163"
            },
            "miss_distance": {
                "astronomical": "0.3218899331",
                "lunar": "125.2151839759",
                "kilometers": "48154048.366202497",
                "miles": "29921538.1745965786"
            },
            "orbiting_body": "Earth"
        },
        {
            "close_approach_date": "2019-10-30",
            "close_approach_date_full": "2019-Oct-30 11:57",
            "epoch_date_close_approach": 1572436620000,
            "relative_velocity": {
                "kilometers_per_second": "8.99798103",
                "kilometers_per_hour": "32392.7317078655",
                "miles_per_hour": "20127.5837659234"
            },
            "miss_distance": {
                "astronomical": "0.3081387957",
                "lunar": "119.8659915273",
                "kilometers": "46096907.501085159",
                "miles": "28643290.1141628342"
            },
            "orbiting_body": "Earth"
        },
        {
            "close_approach_date": "2026-10-27",
            "close_approach_date_full": "2026-Oct-27 02:16",
            "epoch_date_close_approach": 1793067360000,
            "relative_velocity": {
                "kilometers_per_second": "8.9645224906",
                "kilometers_per_hour": "32272.2809660314",
                "miles_per_hour": "20052.7403591433"
            },
            "miss_distance": {
                "astronomical": "0.3086263417",
                "lunar": "120.0556469213",
                "kilometers": "46169843.344212179",
                "miles": "28688610.3455549102"
            },
            "orbiting_body": "Earth"
        }
    ],
    "orbital_data": {
        "orbit_id": "4",
        "orbit_determination_date": "2019-11-28 08:10:43",
        "first_observation_date": "2019-10-23",
        "last_observation_date": "2019-11-20",
        "data_arc_in_days": 28,
        "observations_used": 23,
        "orbit_uncertainty": "7",
        "minimum_orbit_intersection": ".307127",
        "jupiter_tisserand_invariant": "4.023",
        "epoch_osculation": "2459000.5",
        "eccentricity": ".2705515879140932",
        "semi_major_axis": "1.761221083074806",
        "inclination": "17.41481333040753",
        "ascending_node_longitude": "206.2586683193774",
        "orbital_period": "853.7274396846216",
        "perihelion_distance": "1.284719922381139",
        "perihelion_argument": "205.0533132404385",
        "aphelion_distance": "2.237722243768474",
        "perihelion_time": "2458804.024633308168",
        "mean_anomaly": "82.84978169986964",
        "mean_motion": ".4216802497679925",
        "equinox": "J2000",
        "orbit_class": {
            "orbit_class_type": "AMO",
            "orbit_class_description": "Near-Earth asteroid orbits similar to that of 1221 Amor",
            "orbit_class_range": "1.017 AU < q (perihelion) < 1.3 AU"
        }
    },
    "is_sentry_object": false
}